network,city,region,region_code,country,country_code,continent,continent_code,latitude,longitude,timezone,postal_code
1.0.0.0/24,Brisbane,Queensland,QLD,Australia,AU,Oceania,OC,-27.48159,153.0175,Australia/Brisbane,4101
1.0.1.0/24,Xiamen,Fujian,FJ,China,CN,Asia,AS,24.47979,118.08187,Asia/Shanghai,361000
1.0.2.0/23,Xiamen,Fujian,FJ,China,CN,Asia,AS,24.47979,118.08187,Asia/Shanghai,361000
1.0.4.0/22,Melbourne,Victoria,VIC,Australia,AU,Oceania,OC,-37.814,144.96332,Australia/Melbourne,3000
1.0.8.0/21,Shenzhen,Guangdong,GD,China,CN,Asia,AS,22.54554,114.0683,Asia/Shanghai,518000
1.0.16.0/29,Tokyo,Tokyo,13,Japan,JP,Asia,AS,35.6895,139.69171,Asia/Tokyo,101-8656
1.0.16.8/30,Tokyo,Tokyo,13,Japan,JP,Asia,AS,35.6895,139.69171,Asia/Tokyo,101-8656
1.0.16.12/31,Tokyo,Tokyo,13,Japan,JP,Asia,AS,35.6895,139.69171,Asia/Tokyo,101-8656
1.0.16.14,Asagaya-minami,Tokyo,13,Japan,JP,Asia,AS,35.70206,139.63745,Asia/Tokyo,166-0000
1.0.16.15,Tokyo,Tokyo,13,Japan,JP,Asia,AS,35.6895,139.69171,Asia/Tokyo,101-8656
1.0.16.16/28,Tokyo,Tokyo,13,Japan,JP,Asia,AS,35.6895,139.69171,Asia/Tokyo,101-8656
1.0.16.32/27,Tokyo,Tokyo,13,Japan,JP,Asia,AS,35.6895,139.69171,Asia/Tokyo,101-8656
1.0.16.64/26,Tokyo,Tokyo,13,Japan,JP,Asia,AS,35.6895,139.69171,Asia/Tokyo,101-8656
1.0.16.128/25,Tokyo,Tokyo,13,Japan,JP,Asia,AS,35.6895,139.69171,Asia/Tokyo,101-8656
1.0.17.0/24,Asagaya-minami,Tokyo,13,Japan,JP,Asia,AS,35.70206,139.63745,Asia/Tokyo,166-0000
1.0.18.0/23,Asagaya-minami,Tokyo,13,Japan,JP,Asia,AS,35.70206,139.63745,Asia/Tokyo,166-0000
1.0.20.0/22,Asagaya-minami,Tokyo,13,Japan,JP,Asia,AS,35.70206,139.63745,Asia/Tokyo,166-0000
1.0.24.0/21,Asagaya-minami,Tokyo,13,Japan,JP,Asia,AS,35.70206,139.63745,Asia/Tokyo,166-0000
1.0.32.0/19,Shenzhen,Guangdong,GD,China,CN,Asia,AS,22.54554,114.0683,Asia/Shanghai,518000
1.0.64.0/24,Hiroshima,Hiroshima,34,Japan,JP,Asia,AS,34.4,132.45,Asia/Tokyo,730-0011
1.0.65.0/27,Hiroshima,Hiroshima,34,Japan,JP,Asia,AS,34.4,132.45,Asia/Tokyo,730-0011
1.0.65.32/28,Hiroshima,Hiroshima,34,Japan,JP,Asia,AS,34.4,132.45,Asia/Tokyo,730-0011
1.0.65.48/30,Hatsukaichi,Hiroshima,34,Japan,JP,Asia,AS,34.35,132.33333,Asia/Tokyo,738-0013
1.0.65.52/30,Hiroshima,Hiroshima,34,Japan,JP,Asia,AS,34.4,132.45,Asia/Tokyo,730-0011
1.0.65.56/29,Hiroshima,Hiroshima,34,Japan,JP,Asia,AS,34.4,132.45,Asia/Tokyo,730-0011
1.0.65.64/26,Hiroshima,Hiroshima,34,Japan,JP,Asia,AS,34.4,132.45,Asia/Tokyo,730-0011
1.0.65.128/25,Hiroshima,Hiroshima,34,Japan,JP,Asia,AS,34.4,132.45,Asia/Tokyo,730-0011
1.0.66.0/24,Hiroshima,Hiroshima,34,Japan,JP,Asia,AS,34.4,132.45,Asia/Tokyo,730-0011
1.0.67.0/28,Hiroshima,Hiroshima,34,Japan,JP,Asia,AS,34.4,132.45,Asia/Tokyo,730-0011
1.0.67.16/30,Hiroshima,Hiroshima,34,Japan,JP,Asia,AS,34.4,132.45,Asia/Tokyo,730-0011
1.0.67.20,Hiroshima,Hiroshima,34,Japan,JP,Asia,AS,34.4,132.45,Asia/Tokyo,730-0011
1.0.67.21,Hatsukaichi,Hiroshima,34,Japan,JP,Asia,AS,34.35,132.33333,Asia/Tokyo,738-0013
1.0.67.22/31,Hiroshima,Hiroshima,34,Japan,JP,Asia,AS,34.4,132.45,Asia/Tokyo,730-0011
1.0.67.24/29,Hiroshima,Hiroshima,34,Japan,JP,Asia,AS,34.4,132.45,Asia/Tokyo,730-0011
1.0.67.32/30,Hatsukaichi,Hiroshima,34,Japan,JP,Asia,AS,34.35,132.33333,Asia/Tokyo,738-0013
1.0.67.36/30,Hiroshima,Hiroshima,34,Japan,JP,Asia,AS,34.4,132.45,Asia/Tokyo,730-0011
1.0.67.40/29,Hiroshima,Hiroshima,34,Japan,JP,Asia,AS,34.4,132.45,Asia/Tokyo,730-0011
1.0.67.48/28,Hiroshima,Hiroshima,34,Japan,JP,Asia,AS,34.4,132.45,Asia/Tokyo,730-0011
1.0.67.64/27,Hiroshima,Hiroshima,34,Japan,JP,Asia,AS,34.4,132.45,Asia/Tokyo,730-0011
1.0.67.96/28,Hiroshima,Hiroshima,34,Japan,JP,Asia,AS,34.4,132.45,Asia/Tokyo,730-0011
1.0.67.112/30,Hiroshima,Hiroshima,34,Japan,JP,Asia,AS,34.4,132.45,Asia/Tokyo,730-0011
1.0.67.116/30,Fuchū,Hiroshima,34,Japan,JP,Asia,AS,34.38793,132.51001,Asia/Tokyo,799-2435
1.0.67.120/31,Hiroshima,Hiroshima,34,Japan,JP,Asia,AS,34.4,132.45,Asia/Tokyo,730-0011
1.0.67.122/31,Hatsukaichi,Hiroshima,34,Japan,JP,Asia,AS,34.35,132.33333,Asia/Tokyo,738-0013
1.0.67.124/30,Hiroshima,Hiroshima,34,Japan,JP,Asia,AS,34.4,132.45,Asia/Tokyo,730-0011
1.0.67.128/28,Hiroshima,Hiroshima,34,Japan,JP,Asia,AS,34.4,132.45,Asia/Tokyo,730-0011
1.0.67.144/31,Hiroshima,Hiroshima,34,Japan,JP,Asia,AS,34.4,132.45,Asia/Tokyo,730-0011
1.0.67.146/31,Fuchū,Hiroshima,34,Japan,JP,Asia,AS,34.38793,132.51001,Asia/Tokyo,799-2435
1.0.67.148/30,Hiroshima,Hiroshima,34,Japan,JP,Asia,AS,34.4,132.45,Asia/Tokyo,730-0011
1.0.67.152/29,Hiroshima,Hiroshima,34,Japan,JP,Asia,AS,34.4,132.45,Asia/Tokyo,730-0011
1.0.67.160/30,Hiroshima,Hiroshima,34,Japan,JP,Asia,AS,34.4,132.45,Asia/Tokyo,730-0011
1.0.67.164/31,Hiroshima,Hiroshima,34,Japan,JP,Asia,AS,34.4,132.45,Asia/Tokyo,730-0011
1.0.67.166,Hiroshima,Hiroshima,34,Japan,JP,Asia,AS,34.4,132.45,Asia/Tokyo,730-0011
1.0.67.167,Hatsukaichi,Hiroshima,34,Japan,JP,Asia,AS,34.35,132.33333,Asia/Tokyo,738-0013
1.0.67.168/29,Hiroshima,Hiroshima,34,Japan,JP,Asia,AS,34.4,132.45,Asia/Tokyo,730-0011
1.0.67.176/28,Hiroshima,Hiroshima,34,Japan,JP,Asia,AS,34.4,132.45,Asia/Tokyo,730-0011
1.0.67.192/26,Hiroshima,Hiroshima,34,Japan,JP,Asia,AS,34.4,132.45,Asia/Tokyo,730-0011
1.0.68.0/26,Hiroshima,Hiroshima,34,Japan,JP,Asia,AS,34.4,132.45,Asia/Tokyo,730-0011
1.0.68.64/28,Hiroshima,Hiroshima,34,Japan,JP,Asia,AS,34.4,132.45,Asia/Tokyo,730-0011
1.0.68.80/29,Hiroshima,Hiroshima,34,Japan,JP,Asia,AS,34.4,132.45,Asia/Tokyo,730-0011
1.0.68.88/30,Hiroshima,Hiroshima,34,Japan,JP,Asia,AS,34.4,132.45,Asia/Tokyo,730-0011
1.0.68.92/30,Hatsukaichi,Hiroshima,34,Japan,JP,Asia,AS,34.35,132.33333,Asia/Tokyo,738-0013
1.0.68.96/27,Hiroshima,Hiroshima,34,Japan,JP,Asia,AS,34.4,132.45,Asia/Tokyo,730-0011
1.0.68.128/25,Hiroshima,Hiroshima,34,Japan,JP,Asia,AS,34.4,132.45,Asia/Tokyo,730-0011
1.0.69.0/25,Hiroshima,Hiroshima,34,Japan,JP,Asia,AS,34.4,132.45,Asia/Tokyo,730-0011
1.0.69.128/26,Hiroshima,Hiroshima,34,Japan,JP,Asia,AS,34.4,132.45,Asia/Tokyo,730-0011
1.0.69.192/27,Hiroshima,Hiroshima,34,Japan,JP,Asia,AS,34.4,132.45,Asia/Tokyo,730-0011
1.0.69.224/28,Hiroshima,Hiroshima,34,Japan,JP,Asia,AS,34.4,132.45,Asia/Tokyo,730-0011
1.0.69.240/30,Hiroshima,Hiroshima,34,Japan,JP,Asia,AS,34.4,132.45,Asia/Tokyo,730-0011
1.0.69.244/30,Hatsukaichi,Hiroshima,34,Japan,JP,Asia,AS,34.35,132.33333,Asia/Tokyo,738-0013
1.0.69.248/29,Hiroshima,Hiroshima,34,Japan,JP,Asia,AS,34.4,132.45,Asia/Tokyo,730-0011
1.0.70.0/28,Hiroshima,Hiroshima,34,Japan,JP,Asia,AS,34.4,132.45,Asia/Tokyo,730-0011
1.0.70.16/29,Hiroshima,Hiroshima,34,Japan,JP,Asia,AS,34.4,132.45,Asia/Tokyo,730-0011
1.0.70.24/30,Hiroshima,Hiroshima,34,Japan,JP,Asia,AS,34.4,132.45,Asia/Tokyo,730-0011
1.0.70.28/30,Hatsukaichi,Hiroshima,34,Japan,JP,Asia,AS,34.35,132.33333,Asia/Tokyo,738-0013
1.0.70.32/30,Hiroshima,Hiroshima,34,Japan,JP,Asia,AS,34.4,132.45,Asia/Tokyo,730-0011
1.0.70.36/30,Kure,Hiroshima,34,Japan,JP,Asia,AS,34.23222,132.56658,Asia/Tokyo,737-0022
1.0.70.40/29,Hiroshima,Hiroshima,34,Japan,JP,Asia,AS,34.4,132.45,Asia/Tokyo,730-0011
1.0.70.48/29,Hiroshima,Hiroshima,34,Japan,JP,Asia,AS,34.4,132.45,Asia/Tokyo,730-0011
1.0.70.56/31,Hiroshima,Hiroshima,34,Japan,JP,Asia,AS,34.4,132.45,Asia/Tokyo,730-0011
1.0.70.58/31,Fuchū,Hiroshima,34,Japan,JP,Asia,AS,34.38793,132.51001,Asia/Tokyo,799-2435
1.0.70.60/30,Hiroshima,Hiroshima,34,Japan,JP,Asia,AS,34.4,132.45,Asia/Tokyo,730-0011
1.0.70.64/26,Hiroshima,Hiroshima,34,Japan,JP,Asia,AS,34.4,132.45,Asia/Tokyo,730-0011
1.0.70.128/28,Hiroshima,Hiroshima,34,Japan,JP,Asia,AS,34.4,132.45,Asia/Tokyo,730-0011
1.0.70.144/29,Hiroshima,Hiroshima,34,Japan,JP,Asia,AS,34.4,132.45,Asia/Tokyo,730-0011
1.0.70.152/31,Hiroshima,Hiroshima,34,Japan,JP,Asia,AS,34.4,132.45,Asia/Tokyo,730-0011
1.0.70.154/31,Hatsukaichi,Hiroshima,34,Japan,JP,Asia,AS,34.35,132.33333,Asia/Tokyo,738-0013
1.0.70.156/30,Hiroshima,Hiroshima,34,Japan,JP,Asia,AS,34.4,132.45,Asia/Tokyo,730-0011
1.0.70.160/27,Hiroshima,Hiroshima,34,Japan,JP,Asia,AS,34.4,132.45,Asia/Tokyo,730-0011
1.0.70.192/26,Hiroshima,Hiroshima,34,Japan,JP,Asia,AS,34.4,132.45,Asia/Tokyo,730-0011
1.0.71.0/24,Hiroshima,Hiroshima,34,Japan,JP,Asia,AS,34.4,132.45,Asia/Tokyo,730-0011
1.0.72.0/26,Hiroshima,Hiroshima,34,Japan,JP,Asia,AS,34.4,132.45,Asia/Tokyo,730-0011
1.0.72.64/31,Kure,Hiroshima,34,Japan,JP,Asia,AS,34.23222,132.56658,Asia/Tokyo,737-0022
1.0.72.66/31,Hiroshima,Hiroshima,34,Japan,JP,Asia,AS,34.4,132.45,Asia/Tokyo,730-0011
1.0.72.68/30,Hiroshima,Hiroshima,34,Japan,JP,Asia,AS,34.4,132.45,Asia/Tokyo,730-0011
1.0.72.72/29,Hiroshima,Hiroshima,34,Japan,JP,Asia,AS,34.4,132.45,Asia/Tokyo,730-0011
1.0.72.80/28,Hiroshima,Hiroshima,34,Japan,JP,Asia,AS,34.4,132.45,Asia/Tokyo,730-0011
1.0.72.96/27,Hiroshima,Hiroshima,34,Japan,JP,Asia,AS,34.4,132.45,Asia/Tokyo,730-0011
1.0.72.128/26,Hiroshima,Hiroshima,34,Japan,JP,Asia,AS,34.4,132.45,Asia/Tokyo,730-0011
1.0.72.192/27,Hiroshima,Hiroshima,34,Japan,JP,Asia,AS,34.4,132.45,Asia/Tokyo,730-0011
